{"fetched_at":"2026-03-29T16:36:15Z","count":15609,"tles":[{"name":"STARLINK-30107","line1":"1 56287U 23056B   26087.68514034  .00000049  00000+0  11294-4 0  9991","line2":"2 56287  43.0038  83.8712 0001157 272.8100  87.2619 15.27582871163202","category":"Starlink"}]}